$$SOE
2460154.500000000, A.D. 2023-Jul-29 00:00:00.0000, 3.071523575716145E+09, 5.307395674732786E+09, -2.861144003172886E+08,
2460161.500000000, A.D. 2023-Aug-05 00:00:00.0000, 3.069423295436575E+09, 5.309194881713211E+09, -2.860658242710919E+08,
2460168.500000000, A.D. 2023-Aug-12 00:00:00.0000, 3.067322283813560E+09, 5.310992945414343E+09, -2.860171856463337E+08,
2460175.500000000, A.D. 2023-Aug-19 00:00:00.0000, 3.065220539451039E+09, 5.312789863277073E+09, -2.859684843483531E+08,
2460182.500000000, A.D. 2023-Aug-26 00:00:00.0000, 3.063118061258358E+09, 5.314585632343927E+09, -2.859197203066041E+08,
2460189.500000000, A.D. 2023-Sep-02 00:00:00.0000, 3.061014848428017E+09, 5.316380249277766E+09, -2.858708934732406E+08,
2460196.500000000, A.D. 2023-Sep-09 00:00:00.0000, 3.058910900427038E+09, 5.318173710267920E+09, -2.858220038330579E+08,
2460203.500000000, A.D. 2023-Sep-16 00:00:00.0000, 3.056806217170390E+09, 5.319966010765812E+09, -2.857730514449260E+08,
2460210.500000000, A.D. 2023-Sep-23 00:00:00.0000, 3.054700799792871E+09, 5.321757145336798E+09, -2.857240365294008E+08,
2460217.500000000, A.D. 2023-Sep-30 00:00:00.0000, 3.052594651679884E+09, 5.323547108819009E+09, -2.856749594739752E+08,
2460224.500000000, A.D. 2023-Oct-07 00:00:00.0000, 3.050487777403374E+09, 5.325335898246286E+09, -2.856258205842817E+08,
2460231.500000000, A.D. 2023-Oct-14 00:00:00.0000, 3.048380180602807E+09, 5.327123512222128E+09, -2.855766199472537E+08,
2460238.500000000, A.D. 2023-Oct-21 00:00:00.0000, 3.046271864039814E+09, 5.328909949347302E+09, -2.855273575711982E+08,
2460245.500000000, A.D. 2023-Oct-28 00:00:00.0000, 3.044162830402137E+09, 5.330695207961289E+09, -2.854780334872019E+08,
2460252.500000000, A.D. 2023-Nov-04 00:00:00.0000, 3.042053082606836E+09, 5.332479286427133E+09, -2.854286477599185E+08,
2460259.500000000, A.D. 2023-Nov-11 00:00:00.0000, 3.039942623780339E+09, 5.334262183359848E+09, -2.853792004727967E+08,
2460266.500000000, A.D. 2023-Nov-18 00:00:00.0000, 3.037831457134819E+09, 5.336043897734069E+09, -2.853296917128694E+08,
2460273.500000000, A.D. 2023-Nov-25 00:00:00.0000, 3.035719585813735E+09, 5.337824428893476E+09, -2.852801215597177E+08,
2460280.500000000, A.D. 2023-Dec-02 00:00:00.0000, 3.033607012734717E+09, 5.339603776450854E+09, -2.852304900819423E+08,
2460287.500000000, A.D. 2023-Dec-09 00:00:00.0000, 3.031493740507621E+09, 5.341381940019818E+09, -2.851807973529673E+08,
2460294.500000000, A.D. 2023-Dec-16 00:00:00.0000, 3.029379771715300E+09, 5.343158918790803E+09, -2.851310435114944E+08,
2460301.500000000, A.D. 2023-Dec-23 00:00:00.0000, 3.027265109905550E+09, 5.344934711638757E+09, -2.850812288424344E+08,
2460308.500000000, A.D. 2023-Dec-30 00:00:00.0000, 3.025149759954001E+09, 5.346709318811783E+09, -2.850313536697433E+08,
2460315.500000000, A.D. 2024-Jan-06 00:00:00.0000, 3.023033726025511E+09, 5.348482742840037E+09, -2.849814180916953E+08,
2460322.500000000, A.D. 2024-Jan-13 00:00:00.0000, 3.020917010306797E+09, 5.350254986857935E+09, -2.849314219974864E+08,
2460329.500000000, A.D. 2024-Jan-20 00:00:00.0000, 3.018799613733870E+09, 5.352026053424294E+09, -2.848813652255723E+08,
2460336.500000000, A.D. 2024-Jan-27 00:00:00.0000, 3.016681536685531E+09, 5.353795944492582E+09, -2.848312476246147E+08,
2460343.500000000, A.D. 2024-Feb-03 00:00:00.0000, 3.014562779214561E+09, 5.355564661582655E+09, -2.847810690554857E+08,
2460350.500000000, A.D. 2024-Feb-10 00:00:00.0000, 3.012443341093956E+09, 5.357332205862876E+09, -2.847308293837960E+08,
2460357.500000000, A.D. 2024-Feb-17 00:00:00.0000, 3.010323221816920E+09, 5.359098578150537E+09, -2.846805284751844E+08,
2460364.500000000, A.D. 2024-Feb-24 00:00:00.0000, 3.008202420586556E+09, 5.360863778845370E+09, -2.846301661956120E+08,
2460371.500000000, A.D. 2024-Mar-02 00:00:00.0000, 3.006080936324581E+09, 5.362627807763635E+09, -2.845797424221020E+08,
2460378.500000000, A.D. 2024-Mar-09 00:00:00.0000, 3.003958767837899E+09, 5.364390663809910E+09, -2.845292570818961E+08,
2460385.500000000, A.D. 2024-Mar-16 00:00:00.0000, 3.001835914538321E+09, 5.366152344683886E+09, -2.844787102402020E+08,
2460392.500000000, A.D. 2024-Mar-23 00:00:00.0000, 2.999712377611860E+09, 5.367912847731157E+09, -2.844281021364424E+08,
2460399.500000000, A.D. 2024-Mar-30 00:00:00.0000, 2.997588159396457E+09, 5.369672171911278E+09, -2.843774329656546E+08,
2460406.500000000, A.D. 2024-Apr-06 00:00:00.0000, 2.995463261224171E+09, 5.371430317515403E+09, -2.843267027037280E+08,
2460413.500000000, A.D. 2024-Apr-13 00:00:00.0000, 2.993337683278957E+09, 5.373187284470000E+09, -2.842759112338581E+08,
2460420.500000000, A.D. 2024-Apr-20 00:00:00.0000, 2.991211425517897E+09, 5.374943071903249E+09, -2.842250584681129E+08,
2460427.500000000, A.D. 2024-Apr-27 00:00:00.0000, 2.989084488138859E+09, 5.376697678412759E+09, -2.841741443708220E+08,
2460434.500000000, A.D. 2024-May-04 00:00:00.0000, 2.986956871682491E+09, 5.378451102331310E+09, -2.841231689492548E+08,
2460441.500000000, A.D. 2024-May-11 00:00:00.0000, 2.984828577006912E+09, 5.380203341888987E+09, -2.840721322416883E+08,
2460448.500000000, A.D. 2024-May-18 00:00:00.0000, 2.982699605217056E+09, 5.381954395293594E+09, -2.840210343084536E+08,
2460455.500000000, A.D. 2024-May-25 00:00:00.0000, 2.980569957573425E+09, 5.383704260722573E+09, -2.839698752286546E+08,
2460462.500000000, A.D. 2024-Jun-01 00:00:00.0000, 2.978439635440061E+09, 5.385452936169267E+09, -2.839186551125052E+08,
2460469.500000000, A.D. 2024-Jun-08 00:00:00.0000, 2.976308640518116E+09, 5.387200419120960E+09, -2.838673741535254E+08,
2460476.500000000, A.D. 2024-Jun-15 00:00:00.0000, 2.974176975764561E+09, 5.388946706614001E+09, -2.838160327124209E+08,
2460483.500000000, A.D. 2024-Jun-22 00:00:00.0000, 2.972044645990756E+09, 5.390691796841392E+09, -2.837646312441437E+08,
2460490.500000000, A.D. 2024-Jun-29 00:00:00.0000, 2.969911656019335E+09, 5.392435690492274E+09, -2.837131700220814E+08,
2460497.500000000, A.D. 2024-Jul-06 00:00:00.0000, 2.967778009044323E+09, 5.394178389352283E+09, -2.836616491036859E+08,
2460504.500000000, A.D. 2024-Jul-13 00:00:00.0000, 2.965643707143810E+09, 5.395919894989034E+09, -2.836100684854181E+08,
2460511.500000000, A.D. 2024-Jul-20 00:00:00.0000, 2.963508751959476E+09, 5.397660208671391E+09, -2.835584281708629E+08,
2460518.500000000, A.D. 2024-Jul-27 00:00:00.0000, 2.961373144886993E+09, 5.399399331563215E+09, -2.835067281702969E+08,
2460525.500000000, A.D. 2024-Aug-03 00:00:00.0000, 2.959236887050250E+09, 5.401137264816649E+09, -2.834549684874165E+08,
2460532.500000000, A.D. 2024-Aug-10 00:00:00.0000, 2.957099979225132E+09, 5.402874009560717E+09, -2.834031491089511E+08,
2460539.500000000, A.D. 2024-Aug-17 00:00:00.0000, 2.954962421760236E+09, 5.404609566807251E+09, -2.833512699999247E+08,
2460546.500000000, A.D. 2024-Aug-24 00:00:00.0000, 2.952824214522315E+09, 5.406343937252234E+09, -2.832993311091633E+08,
2460553.500000000, A.D. 2024-Aug-31 00:00:00.0000, 2.950685356982100E+09, 5.408077120911465E+09, -2.832473324009528E+08,
2460560.500000000, A.D. 2024-Sep-07 00:00:00.0000, 2.948545848805983E+09, 5.409809116717260E+09, -2.831952739362862E+08,
2460567.500000000, A.D. 2024-Sep-14 00:00:00.0000, 2.946405691038817E+09, 5.411539923072371E+09, -2.831431559303963E+08,
2460574.500000000, A.D. 2024-Sep-21 00:00:00.0000, 2.944264885848995E+09, 5.413269539773921E+09, -2.830909785669837E+08,
2460581.500000000, A.D. 2024-Sep-28 00:00:00.0000, 2.942123434348321E+09, 5.414997968079917E+09, -2.830387417883642E+08,
2460588.500000000, A.D. 2024-Oct-05 00:00:00.0000, 2.939981336156367E+09, 5.416725208920113E+09, -2.829864453981538E+08,
2460595.500000000, A.D. 2024-Oct-12 00:00:00.0000, 2.937838590348702E+09, 5.418451262231466E+09, -2.829340891999502E+08,
2460602.500000000, A.D. 2024-Oct-19 00:00:00.0000, 2.935695196038064E+09, 5.420176127147534E+09, -2.828816730336149E+08,
2460609.500000000, A.D. 2024-Oct-26 00:00:00.0000, 2.933551152556139E+09, 5.421899802240570E+09, -2.828291967716820E+08,
2460616.500000000, A.D. 2024-Nov-02 00:00:00.0000, 2.931406459493382E+09, 5.423622285668203E+09, -2.827766603116312E+08,
2460623.500000000, A.D. 2024-Nov-09 00:00:00.0000, 2.929261116693623E+09, 5.425343575245658E+09, -2.827240635711527E+08,
2460630.500000000, A.D. 2024-Nov-16 00:00:00.0000, 2.927115124229490E+09, 5.427063668444089E+09, -2.826714064887116E+08,
2460637.500000000, A.D. 2024-Nov-23 00:00:00.0000, 2.924968482405764E+09, 5.428782562265404E+09, -2.826186890377395E+08,
2460644.500000000, A.D. 2024-Nov-30 00:00:00.0000, 2.922821191999065E+09, 5.430500252951191E+09, -2.825659112769499E+08,
2460651.500000000, A.D. 2024-Dec-07 00:00:00.0000, 2.920673255153437E+09, 5.432216735946590E+09, -2.825130734407730E+08,
2460658.500000000, A.D. 2024-Dec-14 00:00:00.0000, 2.918524676243284E+09, 5.433932007343266E+09, -2.824601759066169E+08,
2460665.500000000, A.D. 2024-Dec-21 00:00:00.0000, 2.916375460385179E+09, 5.435646065560840E+09, -2.824072189275246E+08,
2460672.500000000, A.D. 2024-Dec-28 00:00:00.0000, 2.914225611571060E+09, 5.437358910299543E+09, -2.823542025534697E+08,
2460679.500000000, A.D. 2025-Jan-04 00:00:00.0000, 2.912075133020117E+09, 5.439070541140341E+09, -2.823011267851250E+08,
2460686.500000000, A.D. 2025-Jan-11 00:00:00.0000, 2.909924027928174E+09, 5.440780957452396E+09, -2.822479916571877E+08,
2460693.500000000, A.D. 2025-Jan-18 00:00:00.0000, 2.907772299697779E+09, 5.442490158689111E+09, -2.821947972419698E+08,
2460700.500000000, A.D. 2025-Jan-25 00:00:00.0000, 2.905619951892592E+09, 5.444198144598203E+09, -2.821415436341202E+08,
2460707.500000000, A.D. 2025-Feb-01 00:00:00.0000, 2.903466988105752E+09, 5.445904915315690E+09, -2.820882309360640E+08,
2460714.500000000, A.D. 2025-Feb-08 00:00:00.0000, 2.901313411800689E+09, 5.447610471363457E+09, -2.820348592476475E+08,
2460721.500000000, A.D. 2025-Feb-15 00:00:00.0000, 2.899159226153343E+09, 5.449314813530364E+09, -2.819814286640799E+08,
$$EOE